{
  "type": "FeatureCollection",
  "name": "uasin_gishu_county_boundary",
  "crs": {
    "type": "name",
    "properties": {
      "name": "urn:ogc:def:crs:OGC:1.3:CRS84"
    }
  },
  "features": [
    {
      "type": "Feature",
      "properties": {
        "county_code": "027",
        "county_name": "Uasin Gishu",
        "country": "Kenya",
        "capital": "Eldoret",
        "area_km2": 3345.2,
        "primary_crop": "maize",
        "optical_crs": "EPSG:32736"
      },
      "geometry": {
        "type": "Polygon",
        "coordinates": [
          [
            [34.880, 0.450],
            [34.920, 0.620],
            [34.980, 0.780],
            [35.050, 0.910],
            [35.220, 0.940],
            [35.380, 0.920],
            [35.520, 0.810],
            [35.580, 0.650],
            [35.540, 0.480],
            [35.480, 0.320],
            [35.390, 0.220],
            [35.250, 0.170],
            [35.080, 0.210],
            [34.950, 0.310],
            [34.880, 0.450]
          ]
        ]
      }
    }
  ]
}
