{
  "type": "FeatureCollection",
  "features": [
    {
      "type": "Feature",
      "geometry": {
        "type": "Polygon",
        "coordinates": [
          [
            [
              35.24350810454633,
              0.6397628480193037
            ],
            [
              35.24350810454633,
              0.6407035409548375
            ],
            [
              35.24381902958067,
              0.6407035409548375
            ],
            [
              35.24381902958067,
              0.6411738874856223
            ],
            [
              35.244129954615005,
              0.6411738874856223
            ],
            [
              35.244129954615005,
              0.6416442340584604
            ],
            [
              35.245062729718015,
              0.6416442340584604
            ],
            [
              35.245062729718015,
              0.6407035409548375
            ],
            [
              35.24475180468368,
              0.6407035409548375
            ],
            [
              35.24475180468368,
              0.6402331944660749
            ],
            [
              35.24444087964934,
              0.6402331944660749
            ],
            [
              35.24444087964934,
              0.6397628480193037
            ],
            [
              35.24350810454633,
              0.6397628480193037
            ]
          ]
        ]
      },
      "properties": {
        "zone_id": "SC-20230301-0001",
        "case_type": "CASE_B",
        "area_ha": 2.52,
        "geom_area_ha": 2.52,
        "area_ha_match": true,
        "pixel_count": 28,
        "pixel_area_m2": 900.0,
        "mean_z_ndvi": -1.7722,
        "mean_z_r": 0.444,
        "mean_delta_swi_14d": null,
        "mean_confidence": 0.75,
        "centroid_lat": 0.640704,
        "centroid_lon": 35.244285
      }
    },
    {
      "type": "Feature",
      "geometry": {
        "type": "Polygon",
        "coordinates": [
          [
            [
              35.25097030537041,
              0.6397628480193037
            ],
            [
              35.25097030537041,
              0.6399980212374424
            ],
            [
              35.25034845530173,
              0.6399980212374424
            ],
            [
              35.25034845530173,
              0.6404683677052054
            ],
            [
              35.24972660523306,
              0.6404683677052054
            ],
            [
              35.24972660523306,
              0.6411738874856223
            ],
            [
              35.24910475516439,
              0.6411738874856223
            ],
            [
              35.24910475516439,
              0.6407035409548375
            ],
            [
              35.24786105502704,
              0.6407035409548375
            ],
            [
              35.24786105502704,
              0.6414090607667828
            ],
            [
              35.24879383013005,
              0.6414090607667828
            ],
            [
              35.24879383013005,
              0.6418794073606588
            ],
            [
              35.24972660523306,
              0.6418794073606588
            ],
            [
              35.24972660523306,
              0.6421145806733822
            ],
            [
              35.24879383013005,
              0.6421145806733822
            ],
            [
              35.24879383013005,
              0.6425849273304188
            ],
            [
              35.24848290509571,
              0.6425849273304188
            ],
            [
              35.24848290509571,
              0.6421145806733822
            ],
            [
              35.24755012999271,
              0.6421145806733822
            ],
            [
              35.24755012999271,
              0.6430552740296015
            ],
            [
              35.24817198006137,
              0.6430552740296015
            ],
            [
              35.24817198006137,
              0.6437607941574659
            ],
            [
              35.24848290509571,
              0.6437607941574659
            ],
            [
              35.24848290509571,
              0.6439959675545268
            ],
            [
              35.24941568019872,
              0.6439959675545268
            ],
            [
              35.24941568019872,
              0.6432904473950068
            ],
            [
              35.24972660523306,
              0.6432904473950068
            ],
            [
              35.24972660523306,
              0.6425849273304188
            ],
            [
              35.2500375302674,
              0.6425849273304188
            ],
            [
              35.2500375302674,
              0.6430552740296015
            ],
            [
              35.25034845530173,
              0.6430552740296015
            ],
            [
              35.25034845530173,
              0.6432904473950068
            ],
            [
              35.25065938033607,
              0.6432904473950068
            ],
            [
              35.25065938033607,
              0.6439959675545268
            ],
            [
              35.25190308047342,
              0.6439959675545268
            ],
            [
              35.25190308047342,
              0.6435256207709604
            ],
            [
              35.25252493054209,
              0.6435256207709604
            ],
            [
              35.25252493054209,
              0.6432904473950068
            ],
            [
              35.25283585557643,
              0.6432904473950068
            ],
            [
              35.25283585557643,
              0.6423497539966343
            ],
            [
              35.25190308047342,
              0.6423497539966343
            ],
            [
              35.25190308047342,
              0.6425849273304188
            ],
            [
              35.25159215543908,
              0.6425849273304188
            ],
            [
              35.25159215543908,
              0.6432904473950068
            ],
            [
              35.25128123040474,
              0.6432904473950068
            ],
            [
              35.25128123040474,
              0.6425849273304188
            ],
            [
              35.25097030537041,
              0.6425849273304188
            ],
            [
              35.25097030537041,
              0.6423497539966343
            ],
            [
              35.25065938033607,
              0.6423497539966343
            ],
            [
              35.25065938033607,
              0.6418794073606588
            ],
            [
              35.25034845530173,
              0.6418794073606588
            ],
            [
              35.25034845530173,
              0.6416442340584604
            ],
            [
              35.25097030537041,
              0.6416442340584604
            ],
            [
              35.25097030537041,
              0.6409387142149753
            ],
            [
              35.25128123040474,
              0.6409387142149753
            ],
            [
              35.25128123040474,
              0.6411738874856223
            ],
            [
              35.25221400550775,
              0.6411738874856223
            ],
            [
              35.25221400550775,
              0.6404683677052054
            ],
            [
              35.25190308047342,
              0.6404683677052054
            ],
            [
              35.25190308047342,
              0.6397628480193037
            ],
            [
              35.25097030537041,
              0.6397628480193037
            ]
          ]
        ]
      },
      "properties": {
        "zone_id": "SC-20230301-0002",
        "case_type": "CASE_B",
        "area_ha": 14.22,
        "geom_area_ha": 14.22,
        "area_ha_match": true,
        "pixel_count": 158,
        "pixel_area_m2": 900.0,
        "mean_z_ndvi": -1.81,
        "mean_z_r": 0.444,
        "mean_delta_swi_14d": null,
        "mean_confidence": 0.75,
        "centroid_lat": 0.6421,
        "centroid_lon": 35.250171
      }
    },
    {
      "type": "Feature",
      "geometry": {
        "type": "MultiPolygon",
        "coordinates": [
          [
            [
              [
                35.25563418088545,
                0.6411738874856223
              ],
              [
                35.255945105919785,
                0.6411738874856223
              ],
              [
                35.255945105919785,
                0.6414090607667828
              ],
              [
                35.25625603095412,
                0.6414090607667828
              ],
              [
                35.25625603095412,
                0.6418794073606588
              ],
              [
                35.25718880605713,
                0.6418794073606588
              ],
              [
                35.25718880605713,
                0.6416442340584604
              ],
              [
                35.25749973109147,
                0.6416442340584604
              ],
              [
                35.25749973109147,
                0.6423497539966343
              ],
              [
                35.25718880605713,
                0.6423497539966343
              ],
              [
                35.25718880605713,
                0.6430552740296015
              ],
              [
                35.25812158116015,
                0.6430552740296015
              ],
              [
                35.25812158116015,
                0.6428201006747402
              ],
              [
                35.25843250619448,
                0.6428201006747402
              ],
              [
                35.25843250619448,
                0.6407035409548375
              ],
              [
                35.25718880605713,
                0.6407035409548375
              ],
              [
                35.25718880605713,
                0.6411738874856223
              ],
              [
                35.256877881022795,
                0.6411738874856223
              ],
              [
                35.256877881022795,
                0.6404683677052054
              ],
              [
                35.25563418088545,
                0.6404683677052054
              ],
              [
                35.25563418088545,
                0.6411738874856223
              ]
            ]
          ],
          [
            [
              [
                35.25812158116015,
                0.6437607941574659
              ],
              [
                35.259676206331825,
                0.6437607941574659
              ],
              [
                35.259676206331825,
                0.6430552740296015
              ],
              [
                35.25812158116015,
                0.6430552740296015
              ],
              [
                35.25812158116015,
                0.6437607941574659
              ]
            ]
          ]
        ]
      },
      "properties": {
        "zone_id": "SC-20230301-0006",
        "case_type": "CASE_B",
        "area_ha": 6.57,
        "geom_area_ha": 6.57,
        "area_ha_match": true,
        "pixel_count": 73,
        "pixel_area_m2": 900.0,
        "mean_z_ndvi": -1.8684,
        "mean_z_r": 0.444,
        "mean_delta_swi_14d": null,
        "mean_confidence": 0.75,
        "centroid_lat": 0.641949,
        "centroid_lon": 35.257634
      }
    },
    {
      "type": "Feature",
      "geometry": {
        "type": "MultiPolygon",
        "coordinates": [
          [
            [
              [
                35.24039885420297,
                0.6418794073606588
              ],
              [
                35.24039885420297,
                0.6423497539966343
              ],
              [
                35.24133162930598,
                0.6423497539966343
              ],
              [
                35.24133162930598,
                0.6430552740296015
              ],
              [
                35.242264404408985,
                0.6430552740296015
              ],
              [
                35.242264404408985,
                0.6435256207709604
              ],
              [
                35.24288625447766,
                0.6435256207709604
              ],
              [
                35.24288625447766,
                0.6439959675545268
              ],
              [
                35.24381902958067,
                0.6439959675545268
              ],
              [
                35.24381902958067,
                0.6435256207709604
              ],
              [
                35.24444087964934,
                0.6435256207709604
              ],
              [
                35.24444087964934,
                0.6437607941574659
              ],
              [
                35.244129954615005,
                0.6437607941574659
              ],
              [
                35.244129954615005,
                0.6449366612484054
              ],
              [
                35.245062729718015,
                0.6449366612484054
              ],
              [
                35.245062729718015,
                0.6444663143803315
              ],
              [
                35.24537365475235,
                0.6444663143803315
              ],
              [
                35.24537365475235,
                0.6439959675545268
              ],
              [
                35.24568457978669,
                0.6439959675545268
              ],
              [
                35.24568457978669,
                0.6435256207709604
              ],
              [
                35.246928279924035,
                0.6435256207709604
              ],
              [
                35.246928279924035,
                0.6432904473950068
              ],
              [
                35.247239204958376,
                0.6432904473950068
              ],
              [
                35.247239204958376,
                0.6423497539966343
              ],
              [
                35.246306429855366,
                0.6423497539966343
              ],
              [
                35.246306429855366,
                0.6425849273304188
              ],
              [
                35.24568457978669,
                0.6425849273304188
              ],
              [
                35.24568457978669,
                0.6432904473950068
              ],
              [
                35.24475180468368,
                0.6432904473950068
              ],
              [
                35.24475180468368,
                0.6425849273304188
              ],
              [
                35.24444087964934,
                0.6425849273304188
              ],
              [
                35.24444087964934,
                0.6421145806733822
              ],
              [
                35.24288625447766,
                0.6421145806733822
              ],
              [
                35.24288625447766,
                0.6425849273304188
              ],
              [
                35.24257532944332,
                0.6425849273304188
              ],
              [
                35.24257532944332,
                0.6418794073606588
              ],
              [
                35.24164255434031,
                0.6418794073606588
              ],
              [
                35.24164255434031,
                0.6421145806733822
              ],
              [
                35.24133162930598,
                0.6421145806733822
              ],
              [
                35.24133162930598,
                0.6416442340584604
              ],
              [
                35.24039885420297,
                0.6416442340584604
              ],
              [
                35.24039885420297,
                0.6409387142149753
              ],
              [
                35.23946607909996,
                0.6409387142149753
              ],
              [
                35.23946607909996,
                0.6418794073606588
              ],
              [
                35.24039885420297,
                0.6418794073606588
              ]
            ],
            [
              [
                35.24257532944332,
                0.6428201006747402
              ],
              [
                35.242264404408985,
                0.6428201006747402
              ],
              [
                35.242264404408985,
                0.6425849273304188
              ],
              [
                35.24257532944332,
                0.6425849273304188
              ],
              [
                35.24257532944332,
                0.6428201006747402
              ]
            ],
            [
              [
                35.24381902958067,
                0.6432904473950068
              ],
              [
                35.24350810454633,
                0.6432904473950068
              ],
              [
                35.24350810454633,
                0.6430552740296015
              ],
              [
                35.24381902958067,
                0.6430552740296015
              ],
              [
                35.24381902958067,
                0.6432904473950068
              ]
            ]
          ],
          [
            [
              [
                35.24164255434031,
                0.6442311409621474
              ],
              [
                35.24164255434031,
                0.6449366612484054
              ],
              [
                35.24195347937465,
                0.6449366612484054
              ],
              [
                35.24195347937465,
                0.645171834698303
              ],
              [
                35.243197179511995,
                0.645171834698303
              ],
              [
                35.243197179511995,
                0.6442311409621474
              ],
              [
                35.24288625447766,
                0.6442311409621474
              ],
              [
                35.24288625447766,
                0.6439959675545268
              ],
              [
                35.24257532944332,
                0.6439959675545268
              ],
              [
                35.24257532944332,
                0.6437607941574659
              ],
              [
                35.24195347937465,
                0.6437607941574659
              ],
              [
                35.24195347937465,
                0.6432904473950068
              ],
              [
                35.24102070427165,
                0.6432904473950068
              ],
              [
                35.24102070427165,
                0.6442311409621474
              ],
              [
                35.24164255434031,
                0.6442311409621474
              ]
            ]
          ],
          [
            [
              [
                35.24164255434031,
                0.6458773551114839
              ],
              [
                35.24164255434031,
                0.6449366612484054
              ],
              [
                35.24070977923731,
                0.6449366612484054
              ],
              [
                35.24070977923731,
                0.6458773551114839
              ],
              [
                35.24164255434031,
                0.6458773551114839
              ]
            ]
          ],
          [
            [
              [
                35.242264404408985,
                0.6465828756199788
              ],
              [
                35.242264404408985,
                0.6468180491440094
              ],
              [
                35.24257532944332,
                0.6468180491440094
              ],
              [
                35.24257532944332,
                0.6470532226786458
              ],
              [
                35.24350810454633,
                0.6470532226786458
              ],
              [
                35.24350810454633,
                0.6461125286037203
              ],
              [
                35.243197179511995,
                0.6461125286037203
              ],
              [
                35.243197179511995,
                0.6458773551114839
              ],
              [
                35.24164255434031,
                0.6458773551114839
              ],
              [
                35.24164255434031,
                0.6465828756199788
              ],
              [
                35.242264404408985,
                0.6465828756199788
              ]
            ]
          ]
        ]
      },
      "properties": {
        "zone_id": "SC-20230301-0009",
        "case_type": "CASE_B",
        "area_ha": 18.36,
        "geom_area_ha": 18.36,
        "area_ha_match": true,
        "pixel_count": 204,
        "pixel_area_m2": 900.0,
        "mean_z_ndvi": -1.803,
        "mean_z_r": 0.444,
        "mean_delta_swi_14d": null,
        "mean_confidence": 0.75,
        "centroid_lat": 0.643719,
        "centroid_lon": 35.243065
      }
    },
    {
      "type": "Feature",
      "geometry": {
        "type": "Polygon",
        "coordinates": [
          [
            [
              35.25532325585111,
              0.6437607941574659
            ],
            [
              35.25532325585111,
              0.644701487809083
            ],
            [
              35.25625603095412,
              0.644701487809083
            ],
            [
              35.25625603095412,
              0.6449366612484054
            ],
            [
              35.25563418088545,
              0.6449366612484054
            ],
            [
              35.25563418088545,
              0.6463477021065505
            ],
            [
              35.25718880605713,
              0.6463477021065505
            ],
            [
              35.25718880605713,
              0.6454070081587793
            ],
            [
              35.256877881022795,
              0.6454070081587793
            ],
            [
              35.256877881022795,
              0.645171834698303
            ],
            [
              35.25749973109147,
              0.645171834698303
            ],
            [
              35.25749973109147,
              0.6458773551114839
            ],
            [
              35.258743431228815,
              0.6458773551114839
            ],
            [
              35.258743431228815,
              0.645171834698303
            ],
            [
              35.257810656125805,
              0.645171834698303
            ],
            [
              35.257810656125805,
              0.6444663143803315
            ],
            [
              35.25656695598846,
              0.6444663143803315
            ],
            [
              35.25656695598846,
              0.6439959675545268
            ],
            [
              35.25625603095412,
              0.6439959675545268
            ],
            [
              35.25625603095412,
              0.6437607941574659
            ],
            [
              35.25532325585111,
              0.6437607941574659
            ]
          ]
        ]
      },
      "properties": {
        "zone_id": "SC-20230301-0011",
        "case_type": "CASE_B",
        "area_ha": 6.03,
        "geom_area_ha": 6.03,
        "area_ha_match": true,
        "pixel_count": 67,
        "pixel_area_m2": 900.0,
        "mean_z_ndvi": -1.8121,
        "mean_z_r": 0.444,
        "mean_delta_swi_14d": null,
        "mean_confidence": 0.75,
        "centroid_lat": 0.645174,
        "centroid_lon": 35.256722
      }
    },
    {
      "type": "Feature",
      "geometry": {
        "type": "MultiPolygon",
        "coordinates": [
          [
            [
              [
                35.24848290509571,
                0.644701487809083
              ],
              [
                35.24755012999271,
                0.644701487809083
              ],
              [
                35.24755012999271,
                0.6454070081587793
              ],
              [
                35.24879383013005,
                0.6454070081587793
              ],
              [
                35.24879383013005,
                0.645171834698303
              ],
              [
                35.24910475516439,
                0.645171834698303
              ],
              [
                35.24910475516439,
                0.6456421816298384
              ],
              [
                35.24972660523306,
                0.6456421816298384
              ],
              [
                35.24972660523306,
                0.6458773551114839
              ],
              [
                35.24879383013005,
                0.6458773551114839
              ],
              [
                35.24879383013005,
                0.6456421816298384
              ],
              [
                35.24786105502704,
                0.6456421816298384
              ],
              [
                35.24786105502704,
                0.6463477021065505
              ],
              [
                35.24755012999271,
                0.6463477021065505
              ],
              [
                35.24755012999271,
                0.6461125286037203
              ],
              [
                35.2466173548897,
                0.6461125286037203
              ],
              [
                35.2466173548897,
                0.6458773551114839
              ],
              [
                35.24475180468368,
                0.6458773551114839
              ],
              [
                35.24475180468368,
                0.6461125286037203
              ],
              [
                35.244129954615005,
                0.6461125286037203
              ],
              [
                35.244129954615005,
                0.6477587433462286
              ],
              [
                35.245062729718015,
                0.6477587433462286
              ],
              [
                35.245062729718015,
                0.6472883962238919
              ],
              [
                35.24537365475235,
                0.6472883962238919
              ],
              [
                35.24537365475235,
                0.6475235697797515
              ],
              [
                35.246306429855366,
                0.6475235697797515
              ],
              [
                35.246306429855366,
                0.6477587433462286
              ],
              [
                35.24568457978669,
                0.6477587433462286
              ],
              [
                35.24568457978669,
                0.6484642641094029
              ],
              [
                35.24537365475235,
                0.6484642641094029
              ],
              [
                35.24537365475235,
                0.6486994377183883
              ],
              [
                35.245062729718015,
                0.6486994377183883
              ],
              [
                35.245062729718015,
                0.6494049586091802
              ],
              [
                35.244129954615005,
                0.6494049586091802
              ],
              [
                35.244129954615005,
                0.6496401322607357
              ],
              [
                35.24381902958067,
                0.6496401322607357
              ],
              [
                35.24381902958067,
                0.6503456532793304
              ],
              [
                35.24444087964934,
                0.6503456532793304
              ],
              [
                35.24444087964934,
                0.6512863481200997
              ],
              [
                35.24537365475235,
                0.6512863481200997
              ],
              [
                35.24537365475235,
                0.6505808269735173
              ],
              [
                35.24568457978669,
                0.6505808269735173
              ],
              [
                35.24568457978669,
                0.6515215218569802
              ],
              [
                35.24444087964934,
                0.6515215218569802
              ],
              [
                35.24444087964934,
                0.6519918693627942
              ],
              [
                35.244129954615005,
                0.6519918693627942
              ],
              [
                35.244129954615005,
                0.6512863481200997
              ],
              [
                35.24288625447766,
                0.6512863481200997
              ],
              [
                35.24288625447766,
                0.6519918693627942
              ],
              [
                35.24195347937465,
                0.6519918693627942
              ],
              [
                35.24195347937465,
                0.6522270431317355
              ],
              [
                35.24164255434031,
                0.6522270431317355
              ],
              [
                35.24164255434031,
                0.6526973907017055
              ],
              [
                35.24070977923731,
                0.6526973907017055
              ],
              [
                35.24070977923731,
                0.6519918693627942
              ],
              [
                35.24039885420297,
                0.6519918693627942
              ],
              [
                35.24039885420297,
                0.6517566956045437
              ],
              [
                35.23946607909996,
                0.6517566956045437
              ],
              [
                35.23946607909996,
                0.6524622169113712
              ],
              [
                35.2397770041343,
                0.6524622169113712
              ],
              [
                35.2397770041343,
                0.652932564502742
              ],
              [
                35.24070977923731,
                0.652932564502742
              ],
              [
                35.24070977923731,
                0.6538732598139883
              ],
              [
                35.24102070427165,
                0.6538732598139883
              ],
              [
                35.24102070427165,
                0.6545787814099858
              ],
              [
                35.24164255434031,
                0.6545787814099858
              ],
              [
                35.24164255434031,
                0.6550491291943104
              ],
              [
                35.24257532944332,
                0.6550491291943104
              ],
              [
                35.24257532944332,
                0.6543436075339253
              ],
              [
                35.242264404408985,
                0.6543436075339253
              ],
              [
                35.242264404408985,
                0.6538732598139883
              ],
              [
                35.24195347937465,
                0.6538732598139883
              ],
              [
                35.24195347937465,
                0.653638085970104
              ],
              [
                35.24257532944332,
                0.653638085970104
              ],
              [
                35.24257532944332,
                0.6534029121369374
              ],
              [
                35.243197179511995,
                0.6534029121369374
              ],
              [
                35.243197179511995,
                0.6531677383144847
              ],
              [
                35.24350810454633,
                0.6531677383144847
              ],
              [
                35.24350810454633,
                0.653638085970104
              ],
              [
                35.244129954615005,
                0.653638085970104
              ],
              [
                35.244129954615005,
                0.6543436075339253
              ],
              [
                35.245062729718015,
                0.6543436075339253
              ],
              [
                35.245062729718015,
                0.6548139552967798
              ],
              [
                35.246306429855366,
                0.6548139552967798
              ],
              [
                35.246306429855366,
                0.6545787814099858
              ],
              [
                35.246928279924035,
                0.6545787814099858
              ],
              [
                35.246928279924035,
                0.6543436075339253
              ],
              [
                35.247239204958376,
                0.6543436075339253
              ],
              [
                35.247239204958376,
                0.6545787814099858
              ],
              [
                35.24817198006137,
                0.6545787814099858
              ],
              [
                35.24817198006137,
                0.6538732598139883
              ],
              [
                35.24786105502704,
                0.6538732598139883
              ],
              [
                35.24786105502704,
                0.6522270431317355
              ],
              [
                35.247239204958376,
                0.6522270431317355
              ],
              [
                35.247239204958376,
                0.6519918693627942
              ],
              [
                35.24755012999271,
                0.6519918693627942
              ],
              [
                35.24755012999271,
                0.6512863481200997
              ],
              [
                35.2466173548897,
                0.6512863481200997
              ],
              [
                35.2466173548897,
                0.6510511743938981
              ],
              [
                35.246928279924035,
                0.6510511743938981
              ],
              [
                35.246928279924035,
                0.6501104795958068
              ],
              [
                35.246306429855366,
                0.6501104795958068
              ],
              [
                35.246306429855366,
                0.6498753059229432
              ],
              [
                35.246928279924035,
                0.6498753059229432
              ],
              [
                35.246928279924035,
                0.6489346113380106
              ],
              [
                35.24786105502704,
                0.6489346113380106
              ],
              [
                35.24786105502704,
                0.6482290905110507
              ],
              [
                35.24755012999271,
                0.6482290905110507
              ],
              [
                35.24755012999271,
                0.6477587433462286
              ],
              [
                35.247239204958376,
                0.6477587433462286
              ],
              [
                35.247239204958376,
                0.6475235697797515
              ],
              [
                35.24755012999271,
                0.6475235697797515
              ],
              [
                35.24755012999271,
                0.6472883962238919
              ],
              [
                35.24817198006137,
                0.6472883962238919
              ],
              [
                35.24817198006137,
                0.6463477021065505
              ],
              [
                35.24848290509571,
                0.6463477021065505
              ],
              [
                35.24848290509571,
                0.6472883962238919
              ],
              [
                35.24941568019872,
                0.6472883962238919
              ],
              [
                35.24941568019872,
                0.6468180491440094
              ],
              [
                35.25034845530173,
                0.6468180491440094
              ],
              [
                35.25034845530173,
                0.6463477021065505
              ],
              [
                35.25065938033607,
                0.6463477021065505
              ],
              [
                35.25065938033607,
                0.6468180491440094
              ],
              [
                35.25159215543908,
                0.6468180491440094
              ],
              [
                35.25159215543908,
                0.6458773551114839
              ],
              [
                35.25065938033607,
                0.6458773551114839
              ],
              [
                35.25065938033607,
                0.6456421816298384
              ],
              [
                35.25034845530173,
                0.6456421816298384
              ],
              [
                35.25034845530173,
                0.6454070081587793
              ],
              [
                35.25097030537041,
                0.6454070081587793
              ],
              [
                35.25097030537041,
                0.644701487809083
              ],
              [
                35.24941568019872,
                0.644701487809083
              ],
              [
                35.24941568019872,
                0.6442311409621474
              ],
              [
                35.24848290509571,
                0.6442311409621474
              ],
              [
                35.24848290509571,
                0.644701487809083
              ]
            ],
            [
              [
                35.24568457978669,
                0.6501104795958068
              ],
              [
                35.245995504821025,
                0.6501104795958068
              ],
              [
                35.245995504821025,
                0.6505808269735173
              ],
              [
                35.24568457978669,
                0.6505808269735173
              ],
              [
                35.24568457978669,
                0.6501104795958068
              ]
            ],
            [
              [
                35.2466173548897,
                0.6489346113380106
              ],
              [
                35.2466173548897,
                0.6486994377183883
              ],
              [
                35.246928279924035,
                0.6486994377183883
              ],
              [
                35.246928279924035,
                0.6489346113380106
              ],
              [
                35.2466173548897,
                0.6489346113380106
              ]
            ],
            [
              [
                35.2466173548897,
                0.6468180491440094
              ],
              [
                35.2466173548897,
                0.6470532226786458
              ],
              [
                35.246306429855366,
                0.6470532226786458
              ],
              [
                35.246306429855366,
                0.6468180491440094
              ],
              [
                35.2466173548897,
                0.6468180491440094
              ]
            ],
            [
              [
                35.246306429855366,
                0.6519918693627942
              ],
              [
                35.246306429855366,
                0.652932564502742
              ],
              [
                35.2466173548897,
                0.652932564502742
              ],
              [
                35.2466173548897,
                0.6531677383144847
              ],
              [
                35.246928279924035,
                0.6531677383144847
              ],
              [
                35.246928279924035,
                0.6534029121369374
              ],
              [
                35.2466173548897,
                0.6534029121369374
              ],
              [
                35.2466173548897,
                0.6538732598139883
              ],
              [
                35.24537365475235,
                0.6538732598139883
              ],
              [
                35.24537365475235,
                0.6541084336685941
              ],
              [
                35.245062729718015,
                0.6541084336685941
              ],
              [
                35.245062729718015,
                0.653638085970104
              ],
              [
                35.24444087964934,
                0.653638085970104
              ],
              [
                35.24444087964934,
                0.6534029121369374
              ],
              [
                35.24475180468368,
                0.6534029121369374
              ],
              [
                35.24475180468368,
                0.6531677383144847
              ],
              [
                35.24537365475235,
                0.6531677383144847
              ],
              [
                35.24537365475235,
                0.6526973907017055
              ],
              [
                35.24568457978669,
                0.6526973907017055
              ],
              [
                35.24568457978669,
                0.6522270431317355
              ],
              [
                35.245995504821025,
                0.6522270431317355
              ],
              [
                35.245995504821025,
                0.6519918693627942
              ],
              [
                35.246306429855366,
                0.6519918693627942
              ]
            ],
            [
              [
                35.24475180468368,
                0.6522270431317355
              ],
              [
                35.24475180468368,
                0.6524622169113712
              ],
              [
                35.24444087964934,
                0.6524622169113712
              ],
              [
                35.24444087964934,
                0.6522270431317355
              ],
              [
                35.24475180468368,
                0.6522270431317355
              ]
            ]
          ],
          [
            [
              [
                35.246306429855366,
                0.6555194770215984
              ],
              [
                35.247239204958376,
                0.6555194770215984
              ],
              [
                35.247239204958376,
                0.6548139552967798
              ],
              [
                35.246306429855366,
                0.6548139552967798
              ],
              [
                35.246306429855366,
                0.6555194770215984
              ]
            ]
          ]
        ]
      },
      "properties": {
        "zone_id": "SC-20230301-0012",
        "case_type": "CASE_B",
        "area_ha": 48.6,
        "geom_area_ha": 48.6,
        "area_ha_match": true,
        "pixel_count": 540,
        "pixel_area_m2": 900.0,
        "mean_z_ndvi": -1.8218,
        "mean_z_r": 0.444,
        "mean_delta_swi_14d": null,
        "mean_confidence": 0.75,
        "centroid_lat": 0.650076,
        "centroid_lon": 35.245819
      }
    },
    {
      "type": "Feature",
      "geometry": {
        "type": "MultiPolygon",
        "coordinates": [
          [
            [
              [
                35.25283585557643,
                0.6472883962238919
              ],
              [
                35.25376863067944,
                0.6472883962238919
              ],
              [
                35.25376863067944,
                0.6465828756199788
              ],
              [
                35.25283585557643,
                0.6465828756199788
              ],
              [
                35.25283585557643,
                0.6472883962238919
              ]
            ]
          ],
          [
            [
              [
                35.25532325585111,
                0.647993916923327
              ],
              [
                35.255012330816776,
                0.647993916923327
              ],
              [
                35.255012330816776,
                0.6484642641094029
              ],
              [
                35.254079555713766,
                0.6484642641094029
              ],
              [
                35.254079555713766,
                0.6489346113380106
              ],
              [
                35.25376863067944,
                0.6489346113380106
              ],
              [
                35.25376863067944,
                0.6491697849682733
              ],
              [
                35.25283585557643,
                0.6491697849682733
              ],
              [
                35.25283585557643,
                0.6484642641094029
              ],
              [
                35.25314678061076,
                0.6484642641094029
              ],
              [
                35.25314678061076,
                0.6482290905110507
              ],
              [
                35.2534577056451,
                0.6482290905110507
              ],
              [
                35.2534577056451,
                0.6475235697797515
              ],
              [
                35.25283585557643,
                0.6475235697797515
              ],
              [
                35.25283585557643,
                0.6472883962238919
              ],
              [
                35.25190308047342,
                0.6472883962238919
              ],
              [
                35.25190308047342,
                0.6482290905110507
              ],
              [
                35.25221400550775,
                0.6482290905110507
              ],
              [
                35.25221400550775,
                0.6484642641094029
              ],
              [
                35.25190308047342,
                0.6484642641094029
              ],
              [
                35.25190308047342,
                0.6494049586091802
              ],
              [
                35.25159215543908,
                0.6494049586091802
              ],
              [
                35.25159215543908,
                0.6503456532793304
              ],
              [
                35.25221400550775,
                0.6503456532793304
              ],
              [
                35.25221400550775,
                0.6510511743938981
              ],
              [
                35.2534577056451,
                0.6510511743938981
              ],
              [
                35.2534577056451,
                0.6503456532793304
              ],
              [
                35.2543904807481,
                0.6503456532793304
              ],
              [
                35.2543904807481,
                0.6501104795958068
              ],
              [
                35.255012330816776,
                0.6501104795958068
              ],
              [
                35.255012330816776,
                0.6503456532793304
              ],
              [
                35.255945105919785,
                0.6503456532793304
              ],
              [
                35.255945105919785,
                0.6494049586091802
              ],
              [
                35.25470140578244,
                0.6494049586091802
              ],
              [
                35.25470140578244,
                0.6491697849682733
              ],
              [
                35.25563418088545,
                0.6491697849682733
              ],
              [
                35.25563418088545,
                0.6486994377183883
              ],
              [
                35.255945105919785,
                0.6486994377183883
              ],
              [
                35.255945105919785,
                0.6482290905110507
              ],
              [
                35.25625603095412,
                0.6482290905110507
              ],
              [
                35.25625603095412,
                0.6470532226786458
              ],
              [
                35.25532325585111,
                0.6470532226786458
              ],
              [
                35.25532325585111,
                0.647993916923327
              ]
            ],
            [
              [
                35.25283585557643,
                0.6496401322607357
              ],
              [
                35.25283585557643,
                0.6498753059229432
              ],
              [
                35.25314678061076,
                0.6498753059229432
              ],
              [
                35.25314678061076,
                0.6501104795958068
              ],
              [
                35.25252493054209,
                0.6501104795958068
              ],
              [
                35.25252493054209,
                0.6496401322607357
              ],
              [
                35.25283585557643,
                0.6496401322607357
              ]
            ]
          ]
        ]
      },
      "properties": {
        "zone_id": "SC-20230301-0016",
        "case_type": "CASE_B",
        "area_ha": 13.23,
        "geom_area_ha": 13.23,
        "area_ha_match": true,
        "pixel_count": 147,
        "pixel_area_m2": 900.0,
        "mean_z_ndvi": -1.8395,
        "mean_z_r": 0.444,
        "mean_delta_swi_14d": null,
        "mean_confidence": 0.75,
        "centroid_lat": 0.648977,
        "centroid_lon": 35.253772
      }
    },
    {
      "type": "Feature",
      "geometry": {
        "type": "MultiPolygon",
        "coordinates": [
          [
            [
              [
                35.256877881022795,
                0.6489346113380106
              ],
              [
                35.25718880605713,
                0.6489346113380106
              ],
              [
                35.25718880605713,
                0.6491697849682733
              ],
              [
                35.25843250619448,
                0.6491697849682733
              ],
              [
                35.25843250619448,
                0.6489346113380106
              ],
              [
                35.258743431228815,
                0.6489346113380106
              ],
              [
                35.258743431228815,
                0.6482290905110507
              ],
              [
                35.25812158116015,
                0.6482290905110507
              ],
              [
                35.25812158116015,
                0.647993916923327
              ],
              [
                35.256877881022795,
                0.647993916923327
              ],
              [
                35.256877881022795,
                0.6489346113380106
              ]
            ]
          ],
          [
            [
              [
                35.25625603095412,
                0.6501104795958068
              ],
              [
                35.257810656125805,
                0.6501104795958068
              ],
              [
                35.257810656125805,
                0.6494049586091802
              ],
              [
                35.25718880605713,
                0.6494049586091802
              ],
              [
                35.25718880605713,
                0.6491697849682733
              ],
              [
                35.25625603095412,
                0.6491697849682733
              ],
              [
                35.25625603095412,
                0.6501104795958068
              ]
            ]
          ]
        ]
      },
      "properties": {
        "zone_id": "SC-20230301-0018",
        "case_type": "CASE_B",
        "area_ha": 3.96,
        "geom_area_ha": 3.96,
        "area_ha_match": true,
        "pixel_count": 44,
        "pixel_area_m2": 900.0,
        "mean_z_ndvi": -1.8947,
        "mean_z_r": 0.444,
        "mean_delta_swi_14d": null,
        "mean_confidence": 0.75,
        "centroid_lat": 0.649031,
        "centroid_lon": 35.257443
      }
    },
    {
      "type": "Feature",
      "geometry": {
        "type": "Polygon",
        "coordinates": [
          [
            [
              35.23946607909996,
              0.6494049586091802
            ],
            [
              35.23946607909996,
              0.6501104795958068
            ],
            [
              35.24008792916864,
              0.6501104795958068
            ],
            [
              35.24008792916864,
              0.6505808269735173
            ],
            [
              35.24039885420297,
              0.6505808269735173
            ],
            [
              35.24039885420297,
              0.6510511743938981
            ],
            [
              35.24164255434031,
              0.6510511743938981
            ],
            [
              35.24164255434031,
              0.6505808269735173
            ],
            [
              35.242264404408985,
              0.6505808269735173
            ],
            [
              35.242264404408985,
              0.6498753059229432
            ],
            [
              35.24133162930598,
              0.6498753059229432
            ],
            [
              35.24133162930598,
              0.6501104795958068
            ],
            [
              35.24102070427165,
              0.6501104795958068
            ],
            [
              35.24102070427165,
              0.6498753059229432
            ],
            [
              35.24039885420297,
              0.6498753059229432
            ],
            [
              35.24039885420297,
              0.6494049586091802
            ],
            [
              35.23946607909996,
              0.6494049586091802
            ]
          ]
        ]
      },
      "properties": {
        "zone_id": "SC-20230301-0021",
        "case_type": "CASE_B",
        "area_ha": 3.24,
        "geom_area_ha": 3.24,
        "area_ha_match": true,
        "pixel_count": 36,
        "pixel_area_m2": 900.0,
        "mean_z_ndvi": -1.7418,
        "mean_z_r": 0.444,
        "mean_delta_swi_14d": null,
        "mean_confidence": 0.75,
        "centroid_lat": 0.650254,
        "centroid_lon": 35.240857
      }
    },
    {
      "type": "Feature",
      "geometry": {
        "type": "Polygon",
        "coordinates": [
          [
            [
              35.24879383013005,
              0.6494049586091802
            ],
            [
              35.24879383013005,
              0.6501104795958068
            ],
            [
              35.24910475516439,
              0.6501104795958068
            ],
            [
              35.24910475516439,
              0.6508160006783722
            ],
            [
              35.25065938033607,
              0.6508160006783722
            ],
            [
              35.25065938033607,
              0.6501104795958068
            ],
            [
              35.25034845530173,
              0.6501104795958068
            ],
            [
              35.25034845530173,
              0.6496401322607357
            ],
            [
              35.24972660523306,
              0.6496401322607357
            ],
            [
              35.24972660523306,
              0.6494049586091802
            ],
            [
              35.24879383013005,
              0.6494049586091802
            ]
          ]
        ]
      },
      "properties": {
        "zone_id": "SC-20230301-0022",
        "case_type": "CASE_B",
        "area_ha": 2.52,
        "geom_area_ha": 2.52,
        "area_ha_match": true,
        "pixel_count": 28,
        "pixel_area_m2": 900.0,
        "mean_z_ndvi": -1.8195,
        "mean_z_r": 0.444,
        "mean_delta_swi_14d": null,
        "mean_confidence": 0.75,
        "centroid_lat": 0.650152,
        "centroid_lon": 35.249704
      }
    },
    {
      "type": "Feature",
      "geometry": {
        "type": "Polygon",
        "coordinates": [
          [
            [
              35.25812158116015,
              0.6505808269735173
            ],
            [
              35.25812158116015,
              0.6512863481200997
            ],
            [
              35.257810656125805,
              0.6512863481200997
            ],
            [
              35.257810656125805,
              0.6519918693627942
            ],
            [
              35.258743431228815,
              0.6519918693627942
            ],
            [
              35.258743431228815,
              0.6512863481200997
            ],
            [
              35.259676206331825,
              0.6512863481200997
            ],
            [
              35.259676206331825,
              0.6505808269735173
            ],
            [
              35.25812158116015,
              0.6505808269735173
            ]
          ]
        ]
      },
      "properties": {
        "zone_id": "SC-20230301-0024",
        "case_type": "CASE_B",
        "area_ha": 2.16,
        "geom_area_ha": 2.16,
        "area_ha_match": true,
        "pixel_count": 24,
        "pixel_area_m2": 900.0,
        "mean_z_ndvi": -1.7051,
        "mean_z_r": 0.444,
        "mean_delta_swi_14d": null,
        "mean_confidence": 0.75,
        "centroid_lat": 0.651198,
        "centroid_lon": 35.258666
      }
    },
    {
      "type": "Feature",
      "geometry": {
        "type": "Polygon",
        "coordinates": [
          [
            [
              35.24972660523306,
              0.6512863481200997
            ],
            [
              35.24972660523306,
              0.6515215218569802
            ],
            [
              35.24910475516439,
              0.6515215218569802
            ],
            [
              35.24910475516439,
              0.6517566956045437
            ],
            [
              35.24879383013005,
              0.6517566956045437
            ],
            [
              35.24879383013005,
              0.6522270431317355
            ],
            [
              35.24817198006137,
              0.6522270431317355
            ],
            [
              35.24817198006137,
              0.652932564502742
            ],
            [
              35.24910475516439,
              0.652932564502742
            ],
            [
              35.24910475516439,
              0.6526973907017055
            ],
            [
              35.24941568019872,
              0.6526973907017055
            ],
            [
              35.24941568019872,
              0.6531677383144847
            ],
            [
              35.25034845530173,
              0.6531677383144847
            ],
            [
              35.25034845530173,
              0.652932564502742
            ],
            [
              35.25128123040474,
              0.652932564502742
            ],
            [
              35.25128123040474,
              0.6526973907017055
            ],
            [
              35.25221400550775,
              0.6526973907017055
            ],
            [
              35.25221400550775,
              0.6512863481200997
            ],
            [
              35.24972660523306,
              0.6512863481200997
            ]
          ],
          [
            [
              35.25065938033607,
              0.6519918693627942
            ],
            [
              35.25097030537041,
              0.6519918693627942
            ],
            [
              35.25097030537041,
              0.6522270431317355
            ],
            [
              35.25065938033607,
              0.6522270431317355
            ],
            [
              35.25065938033607,
              0.6519918693627942
            ]
          ],
          [
            [
              35.2500375302674,
              0.6522270431317355
            ],
            [
              35.25034845530173,
              0.6522270431317355
            ],
            [
              35.25034845530173,
              0.6524622169113712
            ],
            [
              35.2500375302674,
              0.6524622169113712
            ],
            [
              35.2500375302674,
              0.6522270431317355
            ]
          ]
        ]
      },
      "properties": {
        "zone_id": "SC-20230301-0025",
        "case_type": "CASE_B",
        "area_ha": 6.84,
        "geom_area_ha": 6.84,
        "area_ha_match": true,
        "pixel_count": 76,
        "pixel_area_m2": 900.0,
        "mean_z_ndvi": -1.8258,
        "mean_z_r": 0.444,
        "mean_delta_swi_14d": null,
        "mean_confidence": 0.75,
        "centroid_lat": 0.652178,
        "centroid_lon": 35.250357
      }
    },
    {
      "type": "Feature",
      "geometry": {
        "type": "MultiPolygon",
        "coordinates": [
          [
            [
              [
                35.25283585557643,
                0.6524622169113712
              ],
              [
                35.2534577056451,
                0.6524622169113712
              ],
              [
                35.2534577056451,
                0.6526973907017055
              ],
              [
                35.255012330816776,
                0.6526973907017055
              ],
              [
                35.255012330816776,
                0.652932564502742
              ],
              [
                35.255945105919785,
                0.652932564502742
              ],
              [
                35.255945105919785,
                0.6522270431317355
              ],
              [
                35.25532325585111,
                0.6522270431317355
              ],
              [
                35.25532325585111,
                0.6517566956045437
              ],
              [
                35.25470140578244,
                0.6517566956045437
              ],
              [
                35.25470140578244,
                0.6512863481200997
              ],
              [
                35.25283585557643,
                0.6512863481200997
              ],
              [
                35.25283585557643,
                0.6524622169113712
              ]
            ]
          ],
          [
            [
              [
                35.254079555713766,
                0.653638085970104
              ],
              [
                35.2543904807481,
                0.653638085970104
              ],
              [
                35.2543904807481,
                0.6538732598139883
              ],
              [
                35.254079555713766,
                0.6538732598139883
              ],
              [
                35.254079555713766,
                0.6545787814099858
              ],
              [
                35.2543904807481,
                0.6545787814099858
              ],
              [
                35.2543904807481,
                0.6550491291943104
              ],
              [
                35.25532325585111,
                0.6550491291943104
              ],
              [
                35.25532325585111,
                0.6548139552967798
              ],
              [
                35.25563418088545,
                0.6548139552967798
              ],
              [
                35.25563418088545,
                0.653638085970104
              ],
              [
                35.255012330816776,
                0.653638085970104
              ],
              [
                35.255012330816776,
                0.652932564502742
              ],
              [
                35.254079555713766,
                0.652932564502742
              ],
              [
                35.254079555713766,
                0.653638085970104
              ]
            ]
          ]
        ]
      },
      "properties": {
        "zone_id": "SC-20230301-0026",
        "case_type": "CASE_B",
        "area_ha": 7.56,
        "geom_area_ha": 7.56,
        "area_ha_match": true,
        "pixel_count": 84,
        "pixel_area_m2": 900.0,
        "mean_z_ndvi": -1.7825,
        "mean_z_r": 0.444,
        "mean_delta_swi_14d": null,
        "mean_confidence": 0.75,
        "centroid_lat": 0.652907,
        "centroid_lon": 35.254487
      }
    },
    {
      "type": "Feature",
      "geometry": {
        "type": "Polygon",
        "coordinates": [
          [
            [
              35.257810656125805,
              0.652932564502742
            ],
            [
              35.257810656125805,
              0.6534029121369374
            ],
            [
              35.25749973109147,
              0.6534029121369374
            ],
            [
              35.25749973109147,
              0.6531677383144847
            ],
            [
              35.25656695598846,
              0.6531677383144847
            ],
            [
              35.25656695598846,
              0.6541084336685941
            ],
            [
              35.256877881022795,
              0.6541084336685941
            ],
            [
              35.256877881022795,
              0.6543436075339253
            ],
            [
              35.25625603095412,
              0.6543436075339253
            ],
            [
              35.25625603095412,
              0.6550491291943104
            ],
            [
              35.25656695598846,
              0.6550491291943104
            ],
            [
              35.25656695598846,
              0.6557546509513632
            ],
            [
              35.25718880605713,
              0.6557546509513632
            ],
            [
              35.25718880605713,
              0.6559898248918806
            ],
            [
              35.25843250619448,
              0.6559898248918806
            ],
            [
              35.25843250619448,
              0.6557546509513632
            ],
            [
              35.258743431228815,
              0.6557546509513632
            ],
            [
              35.258743431228815,
              0.6555194770215984
            ],
            [
              35.25905435626316,
              0.6555194770215984
            ],
            [
              35.25905435626316,
              0.6541084336685941
            ],
            [
              35.25812158116015,
              0.6541084336685941
            ],
            [
              35.25812158116015,
              0.6550491291943104
            ],
            [
              35.25718880605713,
              0.6550491291943104
            ],
            [
              35.25718880605713,
              0.6543436075339253
            ],
            [
              35.257810656125805,
              0.6543436075339253
            ],
            [
              35.257810656125805,
              0.653638085970104
            ],
            [
              35.258743431228815,
              0.653638085970104
            ],
            [
              35.258743431228815,
              0.652932564502742
            ],
            [
              35.257810656125805,
              0.652932564502742
            ]
          ]
        ]
      },
      "properties": {
        "zone_id": "SC-20230301-0028",
        "case_type": "CASE_B",
        "area_ha": 6.75,
        "geom_area_ha": 6.75,
        "area_ha_match": true,
        "pixel_count": 75,
        "pixel_area_m2": 900.0,
        "mean_z_ndvi": -1.8121,
        "mean_z_r": 0.444,
        "mean_delta_swi_14d": null,
        "mean_confidence": 0.75,
        "centroid_lat": 0.654558,
        "centroid_lon": 35.257697
      }
    },
    {
      "type": "Feature",
      "geometry": {
        "type": "Polygon",
        "coordinates": [
          [
            [
              35.25097030537041,
              0.6531677383144847
            ],
            [
              35.25097030537041,
              0.6541084336685941
            ],
            [
              35.25159215543908,
              0.6541084336685941
            ],
            [
              35.25159215543908,
              0.6545787814099858
            ],
            [
              35.25190308047342,
              0.6545787814099858
            ],
            [
              35.25190308047342,
              0.6548139552967798
            ],
            [
              35.25283585557643,
              0.6548139552967798
            ],
            [
              35.25283585557643,
              0.6538732598139883
            ],
            [
              35.25314678061076,
              0.6538732598139883
            ],
            [
              35.25314678061076,
              0.6531677383144847
            ],
            [
              35.25097030537041,
              0.6531677383144847
            ]
          ]
        ]
      },
      "properties": {
        "zone_id": "SC-20230301-0029",
        "case_type": "CASE_B",
        "area_ha": 3.42,
        "geom_area_ha": 3.42,
        "area_ha_match": true,
        "pixel_count": 38,
        "pixel_area_m2": 900.0,
        "mean_z_ndvi": -1.7997,
        "mean_z_r": 0.444,
        "mean_delta_swi_14d": null,
        "mean_confidence": 0.75,
        "centroid_lat": 0.653861,
        "centroid_lon": 35.252091
      }
    },
    {
      "type": "Feature",
      "geometry": {
        "type": "Polygon",
        "coordinates": [
          [
            [
              35.24102070427165,
              0.655284303102582
            ],
            [
              35.24102070427165,
              0.6559898248918806
            ],
            [
              35.24008792916864,
              0.6559898248918806
            ],
            [
              35.24008792916864,
              0.6566953467779859
            ],
            [
              35.24039885420297,
              0.6566953467779859
            ],
            [
              35.24039885420297,
              0.6574008687610022
            ],
            [
              35.24070977923731,
              0.6574008687610022
            ],
            [
              35.24070977923731,
              0.6578712168035705
            ],
            [
              35.24195347937465,
              0.6578712168035705
            ],
            [
              35.24195347937465,
              0.6581063908410336
            ],
            [
              35.242264404408985,
              0.6581063908410336
            ],
            [
              35.242264404408985,
              0.6583415648892876
            ],
            [
              35.24195347937465,
              0.6583415648892876
            ],
            [
              35.24195347937465,
              0.6599877835295378
            ],
            [
              35.24288625447766,
              0.6599877835295378
            ],
            [
              35.24288625447766,
              0.6592822611902907
            ],
            [
              35.243197179511995,
              0.6592822611902907
            ],
            [
              35.243197179511995,
              0.6583415648892876
            ],
            [
              35.24381902958067,
              0.6583415648892876
            ],
            [
              35.24381902958067,
              0.6576360427768946
            ],
            [
              35.24288625447766,
              0.6576360427768946
            ],
            [
              35.24288625447766,
              0.6569305207615518
            ],
            [
              35.244129954615005,
              0.6569305207615518
            ],
            [
              35.244129954615005,
              0.6564601728051881
            ],
            [
              35.24475180468368,
              0.6564601728051881
            ],
            [
              35.24475180468368,
              0.6559898248918806
            ],
            [
              35.24537365475235,
              0.6559898248918806
            ],
            [
              35.24537365475235,
              0.655284303102582
            ],
            [
              35.244129954615005,
              0.655284303102582
            ],
            [
              35.244129954615005,
              0.6555194770215984
            ],
            [
              35.24381902958067,
              0.6555194770215984
            ],
            [
              35.24381902958067,
              0.655284303102582
            ],
            [
              35.24257532944332,
              0.655284303102582
            ],
            [
              35.24257532944332,
              0.6555194770215984
            ],
            [
              35.242264404408985,
              0.6555194770215984
            ],
            [
              35.242264404408985,
              0.655284303102582
            ],
            [
              35.24102070427165,
              0.655284303102582
            ]
          ],
          [
            [
              35.24257532944332,
              0.6562249988431543
            ],
            [
              35.24288625447766,
              0.6562249988431543
            ],
            [
              35.24288625447766,
              0.6566953467779859
            ],
            [
              35.24195347937465,
              0.6566953467779859
            ],
            [
              35.24195347937465,
              0.6569305207615518
            ],
            [
              35.24164255434031,
              0.6569305207615518
            ],
            [
              35.24164255434031,
              0.6566953467779859
            ],
            [
              35.24133162930598,
              0.6566953467779859
            ],
            [
              35.24133162930598,
              0.6564601728051881
            ],
            [
              35.24257532944332,
              0.6564601728051881
            ],
            [
              35.24257532944332,
              0.6562249988431543
            ]
          ]
        ]
      },
      "properties": {
        "zone_id": "SC-20230301-0031",
        "case_type": "CASE_B",
        "area_ha": 14.13,
        "geom_area_ha": 14.13,
        "area_ha_match": true,
        "pixel_count": 157,
        "pixel_area_m2": 900.0,
        "mean_z_ndvi": -1.8007,
        "mean_z_r": 0.444,
        "mean_delta_swi_14d": null,
        "mean_confidence": 0.75,
        "centroid_lat": 0.656978,
        "centroid_lon": 35.242529
      }
    },
    {
      "type": "Feature",
      "geometry": {
        "type": "MultiPolygon",
        "coordinates": [
          [
            [
              [
                35.24879383013005,
                0.6566953467779859
              ],
              [
                35.24972660523306,
                0.6566953467779859
              ],
              [
                35.24972660523306,
                0.6557546509513632
              ],
              [
                35.24879383013005,
                0.6557546509513632
              ],
              [
                35.24879383013005,
                0.6566953467779859
              ]
            ]
          ],
          [
            [
              [
                35.24786105502704,
                0.6581063908410336
              ],
              [
                35.24910475516439,
                0.6581063908410336
              ],
              [
                35.24910475516439,
                0.6574008687610022
              ],
              [
                35.24879383013005,
                0.6574008687610022
              ],
              [
                35.24879383013005,
                0.6566953467779859
              ],
              [
                35.24786105502704,
                0.6566953467779859
              ],
              [
                35.24786105502704,
                0.6581063908410336
              ]
            ]
          ]
        ]
      },
      "properties": {
        "zone_id": "SC-20230301-0033",
        "case_type": "CASE_B",
        "area_ha": 2.97,
        "geom_area_ha": 2.97,
        "area_ha_match": true,
        "pixel_count": 33,
        "pixel_area_m2": 900.0,
        "mean_z_ndvi": -1.6718,
        "mean_z_r": 0.444,
        "mean_delta_swi_14d": null,
        "mean_confidence": 0.75,
        "centroid_lat": 0.657005,
        "centroid_lon": 35.248723
      }
    },
    {
      "type": "Feature",
      "geometry": {
        "type": "Polygon",
        "coordinates": [
          [
            [
              35.245995504821025,
              0.6559898248918806
            ],
            [
              35.245995504821025,
              0.6564601728051881
            ],
            [
              35.245062729718015,
              0.6564601728051881
            ],
            [
              35.245062729718015,
              0.6571656947558894
            ],
            [
              35.245995504821025,
              0.6571656947558894
            ],
            [
              35.245995504821025,
              0.6578712168035705
            ],
            [
              35.246928279924035,
              0.6578712168035705
            ],
            [
              35.246928279924035,
              0.6569305207615518
            ],
            [
              35.245995504821025,
              0.6569305207615518
            ],
            [
              35.245995504821025,
              0.6566953467779859
            ],
            [
              35.246928279924035,
              0.6566953467779859
            ],
            [
              35.246928279924035,
              0.6559898248918806
            ],
            [
              35.245995504821025,
              0.6559898248918806
            ]
          ]
        ]
      },
      "properties": {
        "zone_id": "SC-20230301-0035",
        "case_type": "CASE_B",
        "area_ha": 2.7,
        "geom_area_ha": 2.7,
        "area_ha_match": true,
        "pixel_count": 30,
        "pixel_area_m2": 900.0,
        "mean_z_ndvi": -1.6028,
        "mean_z_r": 0.444,
        "mean_delta_swi_14d": null,
        "mean_confidence": 0.75,
        "centroid_lat": 0.656907,
        "centroid_lon": 35.246182
      }
    },
    {
      "type": "Feature",
      "geometry": {
        "type": "Polygon",
        "coordinates": [
          [
            [
              35.25283585557643,
              0.6559898248918806
            ],
            [
              35.25283585557643,
              0.6566953467779859
            ],
            [
              35.25221400550775,
              0.6566953467779859
            ],
            [
              35.25221400550775,
              0.6576360427768946
            ],
            [
              35.25252493054209,
              0.6576360427768946
            ],
            [
              35.25252493054209,
              0.6581063908410336
            ],
            [
              35.2534577056451,
              0.6581063908410336
            ],
            [
              35.2534577056451,
              0.6578712168035705
            ],
            [
              35.25376863067944,
              0.6578712168035705
            ],
            [
              35.25376863067944,
              0.6595174352925577
            ],
            [
              35.255012330816776,
              0.6595174352925577
            ],
            [
              35.255012330816776,
              0.6590470870988343
            ],
            [
              35.25532325585111,
              0.6590470870988343
            ],
            [
              35.25532325585111,
              0.6578712168035705
            ],
            [
              35.255012330816776,
              0.6578712168035705
            ],
            [
              35.255012330816776,
              0.6571656947558894
            ],
            [
              35.254079555713766,
              0.6571656947558894
            ],
            [
              35.254079555713766,
              0.6574008687610022
            ],
            [
              35.25376863067944,
              0.6574008687610022
            ],
            [
              35.25376863067944,
              0.6571656947558894
            ],
            [
              35.2534577056451,
              0.6571656947558894
            ],
            [
              35.2534577056451,
              0.6569305207615518
            ],
            [
              35.25376863067944,
              0.6569305207615518
            ],
            [
              35.25376863067944,
              0.6559898248918806
            ],
            [
              35.25283585557643,
              0.6559898248918806
            ]
          ]
        ]
      },
      "properties": {
        "zone_id": "SC-20230301-0036",
        "case_type": "CASE_B",
        "area_ha": 7.11,
        "geom_area_ha": 7.11,
        "area_ha_match": true,
        "pixel_count": 79,
        "pixel_area_m2": 900.0,
        "mean_z_ndvi": -1.7558,
        "mean_z_r": 0.444,
        "mean_delta_swi_14d": null,
        "mean_confidence": 0.75,
        "centroid_lat": 0.65781,
        "centroid_lon": 35.253861
      }
    },
    {
      "type": "Feature",
      "geometry": {
        "type": "Polygon",
        "coordinates": [
          [
            [
              35.25563418088545,
              0.6564601728051881
            ],
            [
              35.25563418088545,
              0.6574008687610022
            ],
            [
              35.25625603095412,
              0.6574008687610022
            ],
            [
              35.25625603095412,
              0.6576360427768946
            ],
            [
              35.25563418088545,
              0.6576360427768946
            ],
            [
              35.25563418088545,
              0.6583415648892876
            ],
            [
              35.256877881022795,
              0.6583415648892876
            ],
            [
              35.256877881022795,
              0.6578712168035705
            ],
            [
              35.25812158116015,
              0.6578712168035705
            ],
            [
              35.25812158116015,
              0.6571656947558894
            ],
            [
              35.256877881022795,
              0.6571656947558894
            ],
            [
              35.256877881022795,
              0.6564601728051881
            ],
            [
              35.25563418088545,
              0.6564601728051881
            ]
          ]
        ]
      },
      "properties": {
        "zone_id": "SC-20230301-0037",
        "case_type": "CASE_B",
        "area_ha": 3.78,
        "geom_area_ha": 3.78,
        "area_ha_match": true,
        "pixel_count": 42,
        "pixel_area_m2": 900.0,
        "mean_z_ndvi": -1.8669,
        "mean_z_r": 0.444,
        "mean_delta_swi_14d": null,
        "mean_confidence": 0.75,
        "centroid_lat": 0.657429,
        "centroid_lon": 35.256626
      }
    },
    {
      "type": "Feature",
      "geometry": {
        "type": "Polygon",
        "coordinates": [
          [
            [
              35.24786105502704,
              0.6583415648892876
            ],
            [
              35.24786105502704,
              0.6585767389483363
            ],
            [
              35.24755012999271,
              0.6585767389483363
            ],
            [
              35.24755012999271,
              0.6599877835295378
            ],
            [
              35.24848290509571,
              0.6599877835295378
            ],
            [
              35.24848290509571,
              0.6592822611902907
            ],
            [
              35.24879383013005,
              0.6592822611902907
            ],
            [
              35.24879383013005,
              0.6583415648892876
            ],
            [
              35.24786105502704,
              0.6583415648892876
            ]
          ]
        ]
      },
      "properties": {
        "zone_id": "SC-20230301-0040",
        "case_type": "CASE_B",
        "area_ha": 2.16,
        "geom_area_ha": 2.16,
        "area_ha_match": true,
        "pixel_count": 24,
        "pixel_area_m2": 900.0,
        "mean_z_ndvi": -1.9274,
        "mean_z_r": 0.444,
        "mean_delta_swi_14d": null,
        "mean_confidence": 0.75,
        "centroid_lat": 0.659135,
        "centroid_lon": 35.248133
      }
    },
    {
      "type": "Feature",
      "geometry": {
        "type": "Polygon",
        "coordinates": [
          [
            [
              35.2500375302674,
              0.658811913018184
            ],
            [
              35.2500375302674,
              0.6590470870988343
            ],
            [
              35.24910475516439,
              0.6590470870988343
            ],
            [
              35.24910475516439,
              0.6597526094056387
            ],
            [
              35.24941568019872,
              0.6597526094056387
            ],
            [
              35.24941568019872,
              0.6599877835295378
            ],
            [
              35.25034845530173,
              0.6599877835295378
            ],
            [
              35.25034845530173,
              0.6595174352925577
            ],
            [
              35.25097030537041,
              0.6595174352925577
            ],
            [
              35.25097030537041,
              0.6599877835295378
            ],
            [
              35.25252493054209,
              0.6599877835295378
            ],
            [
              35.25252493054209,
              0.6597526094056387
            ],
            [
              35.2534577056451,
              0.6597526094056387
            ],
            [
              35.2534577056451,
              0.6590470870988343
            ],
            [
              35.25314678061076,
              0.6590470870988343
            ],
            [
              35.25314678061076,
              0.658811913018184
            ],
            [
              35.25159215543908,
              0.658811913018184
            ],
            [
              35.25159215543908,
              0.6592822611902907
            ],
            [
              35.25128123040474,
              0.6592822611902907
            ],
            [
              35.25128123040474,
              0.658811913018184
            ],
            [
              35.2500375302674,
              0.658811913018184
            ]
          ]
        ]
      },
      "properties": {
        "zone_id": "SC-20230301-0044",
        "case_type": "CASE_B",
        "area_ha": 5.04,
        "geom_area_ha": 5.04,
        "area_ha_match": true,
        "pixel_count": 56,
        "pixel_area_m2": 900.0,
        "mean_z_ndvi": -1.7784,
        "mean_z_r": 0.444,
        "mean_delta_swi_14d": null,
        "mean_confidence": 0.75,
        "centroid_lat": 0.659387,
        "centroid_lon": 35.25132
      }
    }
  ],
  "pipeline_report": {
    "pixel_area_m2": 900.0,
    "pixel_area_source": "affine_transform",
    "raw_actionable_pixels": 4431,
    "raw_actionable_area_m2": 3987900.0,
    "raw_actionable_area_ha": 398.79,
    "post_morphology_pixels": 2346,
    "post_morphology_area_m2": 2111400.0,
    "post_morphology_area_ha": 211.14,
    "n_connected_components": 46,
    "n_components_removed_mmu": 24,
    "n_surviving_clusters": 22,
    "final_total_area_m2": 1838700.0,
    "final_total_area_ha": 183.87,
    "mmu_threshold_m2": 20000.0,
    "morphology_applied": true,
    "connectivity": "8-connected",
    "area_calculation_crs": "EPSG:6933",
    "area_calculation_method": "pixel_count \u00d7 pixel_area_m2 (projected)"
  },
  "properties": {
    "grid_bbox": [
      35.239622,
      0.63988,
      35.259832,
      0.660105
    ]
  }
}