{
  "type": "FeatureCollection",
  "features": [],
  "pipeline_report": {
    "pixel_area_m2": 900.0,
    "pixel_area_source": "affine_transform",
    "raw_actionable_pixels": 1701,
    "raw_actionable_area_m2": 1530900.0,
    "post_morphology_pixels": 0,
    "post_morphology_area_m2": 0.0,
    "n_connected_components": 0,
    "n_components_removed_mmu": 0,
    "n_surviving_clusters": 0,
    "final_total_area_m2": 0.0,
    "final_total_area_ha": 0.0
  },
  "properties": {
    "grid_bbox": [
      35.239622,
      0.63988,
      35.259832,
      0.660105
    ]
  }
}